<?xml version="1.0" encoding="UTF-8"?>
<kml xmlns="http://www.opengis.net/kml/2.2" xmlns:gx="http://www.google.com/kml/ext/2.2" xmlns:kml="http://www.opengis.net/kml/2.2" xmlns:atom="http://www.w3.org/2005/Atom">
<Document id="13RaZZXjui6AOFswKcbIKAxo0B9KKbp8b">
	<name>Desa Salamrejo Kecamatan Binangun Blitar</name>
	<gx:CascadingStyle kml:id="__managed_style_225DDC512740C2F88901_highlight">
		<Style>
			<IconStyle>
				<scale>1.8</scale>
				<Icon>
					<href>https://earth.google.com/earth/document/icon?color=d32f2f&amp;id=2211&amp;scale=4</href>
				</Icon>
				<hotSpot x="64" y="128" xunits="pixels" yunits="insetPixels"/>
			</IconStyle>
			<LabelStyle>
			</LabelStyle>
			<LineStyle>
				<color>ff2dc0fb</color>
				<width>4.8</width>
			</LineStyle>
			<PolyStyle>
				<color>40ffffff</color>
			</PolyStyle>
			<BalloonStyle>
			</BalloonStyle>
		</Style>
	</gx:CascadingStyle>
	<gx:CascadingStyle kml:id="__managed_style_198FB6AF0E40C2F88901_normal">
		<Style>
			<IconStyle>
				<scale>1.5</scale>
				<Icon>
					<href>https://earth.google.com/earth/document/icon?color=d32f2f&amp;id=2283&amp;scale=4</href>
				</Icon>
				<hotSpot x="64" y="128" xunits="pixels" yunits="insetPixels"/>
			</IconStyle>
			<LabelStyle>
			</LabelStyle>
			<LineStyle>
				<color>ff2dc0fb</color>
				<width>3.2</width>
			</LineStyle>
			<PolyStyle>
				<color>40ffffff</color>
			</PolyStyle>
			<BalloonStyle>
				<gx:displayMode>card</gx:displayMode>
			</BalloonStyle>
		</Style>
	</gx:CascadingStyle>
	<StyleMap id="__managed_style_198FB6AF0E40C2F88901">
		<Pair>
			<key>normal</key>
			<styleUrl>#__managed_style_198FB6AF0E40C2F88901_normal</styleUrl>
		</Pair>
		<Pair>
			<key>highlight</key>
			<styleUrl>#__managed_style_198FB6AF0E40C2F88901_highlight</styleUrl>
		</Pair>
	</StyleMap>
	<gx:CascadingStyle kml:id="__managed_style_0E8FC4AB6E40C2F88901_highlight">
		<Style>
			<IconStyle>
				<scale>1.8</scale>
				<Icon>
					<href>https://earth.google.com/earth/document/icon?color=d32f2f&amp;id=2163&amp;scale=4</href>
				</Icon>
				<hotSpot x="64" y="128" xunits="pixels" yunits="insetPixels"/>
			</IconStyle>
			<LabelStyle>
			</LabelStyle>
			<LineStyle>
				<color>ff2dc0fb</color>
				<width>4.8</width>
			</LineStyle>
			<PolyStyle>
				<color>40ffffff</color>
			</PolyStyle>
			<BalloonStyle>
				<gx:displayMode>card</gx:displayMode>
			</BalloonStyle>
		</Style>
	</gx:CascadingStyle>
	<gx:CascadingStyle kml:id="__managed_style_102C1C491F40C2F88900_highlight">
		<Style>
			<IconStyle>
				<scale>1.8</scale>
				<Icon>
					<href>https://earth.google.com/earth/document/icon?color=d32f2f&amp;id=2304&amp;scale=4</href>
				</Icon>
				<hotSpot x="64" y="128" xunits="pixels" yunits="insetPixels"/>
			</IconStyle>
			<LabelStyle>
			</LabelStyle>
			<LineStyle>
				<color>ff2dc0fb</color>
				<width>4.8</width>
			</LineStyle>
			<PolyStyle>
				<color>40ffffff</color>
			</PolyStyle>
			<BalloonStyle>
				<gx:displayMode>card</gx:displayMode>
			</BalloonStyle>
		</Style>
	</gx:CascadingStyle>
	<gx:CascadingStyle kml:id="__managed_style_102C1C491F40C2F88900_normal">
		<Style>
			<IconStyle>
				<scale>1.5</scale>
				<Icon>
					<href>https://earth.google.com/earth/document/icon?color=d32f2f&amp;id=2304&amp;scale=4</href>
				</Icon>
				<hotSpot x="64" y="128" xunits="pixels" yunits="insetPixels"/>
			</IconStyle>
			<LabelStyle>
			</LabelStyle>
			<LineStyle>
				<color>ff2dc0fb</color>
				<width>3.2</width>
			</LineStyle>
			<PolyStyle>
				<color>40ffffff</color>
			</PolyStyle>
			<BalloonStyle>
				<gx:displayMode>card</gx:displayMode>
			</BalloonStyle>
		</Style>
	</gx:CascadingStyle>
	<gx:CascadingStyle kml:id="__managed_style_089B0F7CB740C2F88900_normal">
		<Style>
			<IconStyle>
				<scale>1.5</scale>
				<Icon>
					<href>https://earth.google.com/earth/document/icon?color=d32f2f&amp;id=2080&amp;scale=4</href>
				</Icon>
				<hotSpot x="64" y="128" xunits="pixels" yunits="insetPixels"/>
			</IconStyle>
			<LabelStyle>
			</LabelStyle>
			<LineStyle>
				<color>ff2dc0fb</color>
				<width>3.2</width>
			</LineStyle>
			<PolyStyle>
				<color>40ffffff</color>
			</PolyStyle>
			<BalloonStyle>
				<gx:displayMode>card</gx:displayMode>
			</BalloonStyle>
		</Style>
	</gx:CascadingStyle>
	<StyleMap id="__managed_style_102C1C491F40C2F88900">
		<Pair>
			<key>normal</key>
			<styleUrl>#__managed_style_102C1C491F40C2F88900_normal</styleUrl>
		</Pair>
		<Pair>
			<key>highlight</key>
			<styleUrl>#__managed_style_102C1C491F40C2F88900_highlight</styleUrl>
		</Pair>
	</StyleMap>
	<StyleMap id="__managed_style_27BC02E23840C2F88904">
		<Pair>
			<key>normal</key>
			<styleUrl>#__managed_style_27BC02E23840C2F88904_normal</styleUrl>
		</Pair>
		<Pair>
			<key>highlight</key>
			<styleUrl>#__managed_style_27BC02E23840C2F88904_highlight</styleUrl>
		</Pair>
	</StyleMap>
	<gx:CascadingStyle kml:id="__managed_style_0B1EECBD9240C2F88906_highlight">
		<Style>
			<IconStyle>
				<scale>1.8</scale>
				<Icon>
					<href>https://earth.google.com/earth/document/icon?color=388e3c&amp;id=2367&amp;scale=4</href>
				</Icon>
				<hotSpot x="64" y="128" xunits="pixels" yunits="insetPixels"/>
			</IconStyle>
			<LabelStyle>
			</LabelStyle>
			<LineStyle>
				<color>ff2dc0fb</color>
				<width>4.8</width>
			</LineStyle>
			<PolyStyle>
				<color>40ffffff</color>
			</PolyStyle>
			<BalloonStyle>
			</BalloonStyle>
		</Style>
	</gx:CascadingStyle>
	<gx:CascadingStyle kml:id="__managed_style_1014AE72E140C2F88903_highlight">
		<Style>
			<IconStyle>
				<scale>1.8</scale>
				<Icon>
					<href>https://earth.google.com/earth/document/icon?color=303f9f&amp;id=2163&amp;scale=4</href>
				</Icon>
				<hotSpot x="64" y="128" xunits="pixels" yunits="insetPixels"/>
			</IconStyle>
			<LabelStyle>
			</LabelStyle>
			<LineStyle>
				<color>ff2dc0fb</color>
				<width>4.8</width>
			</LineStyle>
			<PolyStyle>
				<color>40ffffff</color>
			</PolyStyle>
			<BalloonStyle>
			</BalloonStyle>
		</Style>
	</gx:CascadingStyle>
	<StyleMap id="__managed_style_0F2C48E65440C2F88903">
		<Pair>
			<key>normal</key>
			<styleUrl>#__managed_style_0F2C48E65440C2F88903_normal</styleUrl>
		</Pair>
		<Pair>
			<key>highlight</key>
			<styleUrl>#__managed_style_0F2C48E65440C2F88903_highlight</styleUrl>
		</Pair>
	</StyleMap>
	<StyleMap id="__managed_style_1014AE72E140C2F88903">
		<Pair>
			<key>normal</key>
			<styleUrl>#__managed_style_1014AE72E140C2F88903_normal</styleUrl>
		</Pair>
		<Pair>
			<key>highlight</key>
			<styleUrl>#__managed_style_1014AE72E140C2F88903_highlight</styleUrl>
		</Pair>
	</StyleMap>
	<gx:CascadingStyle kml:id="__managed_style_1014AE72E140C2F88903_normal">
		<Style>
			<IconStyle>
				<scale>1.5</scale>
				<Icon>
					<href>https://earth.google.com/earth/document/icon?color=303f9f&amp;id=2163&amp;scale=4</href>
				</Icon>
				<hotSpot x="64" y="128" xunits="pixels" yunits="insetPixels"/>
			</IconStyle>
			<LabelStyle>
			</LabelStyle>
			<LineStyle>
				<color>ff2dc0fb</color>
				<width>3.2</width>
			</LineStyle>
			<PolyStyle>
				<color>40ffffff</color>
			</PolyStyle>
			<BalloonStyle>
			</BalloonStyle>
		</Style>
	</gx:CascadingStyle>
	<gx:CascadingStyle kml:id="__managed_style_3D77A8758540C2F88904_highlight">
		<Style>
			<IconStyle>
				<scale>1.8</scale>
				<Icon>
					<href>https://earth.google.com/earth/document/icon?color=303f9f&amp;id=2232&amp;scale=4</href>
				</Icon>
				<hotSpot x="64" y="128" xunits="pixels" yunits="insetPixels"/>
			</IconStyle>
			<LabelStyle>
			</LabelStyle>
			<LineStyle>
				<color>ff2dc0fb</color>
				<width>4.8</width>
			</LineStyle>
			<PolyStyle>
				<color>40ffffff</color>
			</PolyStyle>
			<BalloonStyle>
			</BalloonStyle>
		</Style>
	</gx:CascadingStyle>
	<StyleMap id="__managed_style_225DDC512740C2F88901">
		<Pair>
			<key>normal</key>
			<styleUrl>#__managed_style_225DDC512740C2F88901_normal</styleUrl>
		</Pair>
		<Pair>
			<key>highlight</key>
			<styleUrl>#__managed_style_225DDC512740C2F88901_highlight</styleUrl>
		</Pair>
	</StyleMap>
	<StyleMap id="__managed_style_0B1EECBD9240C2F88906">
		<Pair>
			<key>normal</key>
			<styleUrl>#__managed_style_0B1EECBD9240C2F88906_normal</styleUrl>
		</Pair>
		<Pair>
			<key>highlight</key>
			<styleUrl>#__managed_style_0B1EECBD9240C2F88906_highlight</styleUrl>
		</Pair>
	</StyleMap>
	<gx:CascadingStyle kml:id="__managed_style_3D77A8758540C2F88904_normal">
		<Style>
			<IconStyle>
				<scale>1.5</scale>
				<Icon>
					<href>https://earth.google.com/earth/document/icon?color=303f9f&amp;id=2232&amp;scale=4</href>
				</Icon>
				<hotSpot x="64" y="128" xunits="pixels" yunits="insetPixels"/>
			</IconStyle>
			<LabelStyle>
			</LabelStyle>
			<LineStyle>
				<color>ff2dc0fb</color>
				<width>3.2</width>
			</LineStyle>
			<PolyStyle>
				<color>40ffffff</color>
			</PolyStyle>
			<BalloonStyle>
			</BalloonStyle>
		</Style>
	</gx:CascadingStyle>
	<gx:CascadingStyle kml:id="__managed_style_089B0F7CB740C2F88900_highlight">
		<Style>
			<IconStyle>
				<scale>1.8</scale>
				<Icon>
					<href>https://earth.google.com/earth/document/icon?color=d32f2f&amp;id=2080&amp;scale=4</href>
				</Icon>
				<hotSpot x="64" y="128" xunits="pixels" yunits="insetPixels"/>
			</IconStyle>
			<LabelStyle>
			</LabelStyle>
			<LineStyle>
				<color>ff2dc0fb</color>
				<width>4.8</width>
			</LineStyle>
			<PolyStyle>
				<color>40ffffff</color>
			</PolyStyle>
			<BalloonStyle>
				<gx:displayMode>card</gx:displayMode>
			</BalloonStyle>
		</Style>
	</gx:CascadingStyle>
	<StyleMap id="__managed_style_08F06804BC40C2F88904">
		<Pair>
			<key>normal</key>
			<styleUrl>#__managed_style_08F06804BC40C2F88904_normal</styleUrl>
		</Pair>
		<Pair>
			<key>highlight</key>
			<styleUrl>#__managed_style_08F06804BC40C2F88904_highlight</styleUrl>
		</Pair>
	</StyleMap>
	<gx:CascadingStyle kml:id="__managed_style_27BC02E23840C2F88904_normal">
		<Style>
			<IconStyle>
				<scale>1.5</scale>
				<Icon>
					<href>https://earth.google.com/earth/document/icon?color=388e3c&amp;id=2370&amp;scale=4</href>
				</Icon>
				<hotSpot x="64" y="128" xunits="pixels" yunits="insetPixels"/>
			</IconStyle>
			<LabelStyle>
			</LabelStyle>
			<LineStyle>
				<color>ff2dc0fb</color>
				<width>3.2</width>
			</LineStyle>
			<PolyStyle>
				<color>40ffffff</color>
			</PolyStyle>
			<BalloonStyle>
			</BalloonStyle>
		</Style>
	</gx:CascadingStyle>
	<StyleMap id="__managed_style_3D77A8758540C2F88904">
		<Pair>
			<key>normal</key>
			<styleUrl>#__managed_style_3D77A8758540C2F88904_normal</styleUrl>
		</Pair>
		<Pair>
			<key>highlight</key>
			<styleUrl>#__managed_style_3D77A8758540C2F88904_highlight</styleUrl>
		</Pair>
	</StyleMap>
	<StyleMap id="__managed_style_089B0F7CB740C2F88900">
		<Pair>
			<key>normal</key>
			<styleUrl>#__managed_style_089B0F7CB740C2F88900_normal</styleUrl>
		</Pair>
		<Pair>
			<key>highlight</key>
			<styleUrl>#__managed_style_089B0F7CB740C2F88900_highlight</styleUrl>
		</Pair>
	</StyleMap>
	<gx:CascadingStyle kml:id="__managed_style_0E8FC4AB6E40C2F88901_normal">
		<Style>
			<IconStyle>
				<scale>1.5</scale>
				<Icon>
					<href>https://earth.google.com/earth/document/icon?color=d32f2f&amp;id=2163&amp;scale=4</href>
				</Icon>
				<hotSpot x="64" y="128" xunits="pixels" yunits="insetPixels"/>
			</IconStyle>
			<LabelStyle>
			</LabelStyle>
			<LineStyle>
				<color>ff2dc0fb</color>
				<width>3.2</width>
			</LineStyle>
			<PolyStyle>
				<color>40ffffff</color>
			</PolyStyle>
			<BalloonStyle>
				<gx:displayMode>card</gx:displayMode>
			</BalloonStyle>
		</Style>
	</gx:CascadingStyle>
	<gx:CascadingStyle kml:id="__managed_style_0F2C48E65440C2F88903_highlight">
		<Style>
			<IconStyle>
				<scale>1.8</scale>
				<Icon>
					<href>https://earth.google.com/earth/document/icon?color=303f9f&amp;id=2385&amp;scale=4</href>
				</Icon>
				<hotSpot x="64" y="128" xunits="pixels" yunits="insetPixels"/>
			</IconStyle>
			<LabelStyle>
			</LabelStyle>
			<LineStyle>
				<color>ff2dc0fb</color>
				<width>4.8</width>
			</LineStyle>
			<PolyStyle>
				<color>40ffffff</color>
			</PolyStyle>
			<BalloonStyle>
			</BalloonStyle>
		</Style>
	</gx:CascadingStyle>
	<gx:CascadingStyle kml:id="__managed_style_225DDC512740C2F88901_normal">
		<Style>
			<IconStyle>
				<scale>1.5</scale>
				<Icon>
					<href>https://earth.google.com/earth/document/icon?color=d32f2f&amp;id=2211&amp;scale=4</href>
				</Icon>
				<hotSpot x="64" y="128" xunits="pixels" yunits="insetPixels"/>
			</IconStyle>
			<LabelStyle>
			</LabelStyle>
			<LineStyle>
				<color>ff2dc0fb</color>
				<width>3.2</width>
			</LineStyle>
			<PolyStyle>
				<color>40ffffff</color>
			</PolyStyle>
			<BalloonStyle>
			</BalloonStyle>
		</Style>
	</gx:CascadingStyle>
	<StyleMap id="__managed_style_0E8FC4AB6E40C2F88901">
		<Pair>
			<key>normal</key>
			<styleUrl>#__managed_style_0E8FC4AB6E40C2F88901_normal</styleUrl>
		</Pair>
		<Pair>
			<key>highlight</key>
			<styleUrl>#__managed_style_0E8FC4AB6E40C2F88901_highlight</styleUrl>
		</Pair>
	</StyleMap>
	<gx:CascadingStyle kml:id="__managed_style_27BC02E23840C2F88904_highlight">
		<Style>
			<IconStyle>
				<scale>1.8</scale>
				<Icon>
					<href>https://earth.google.com/earth/document/icon?color=388e3c&amp;id=2370&amp;scale=4</href>
				</Icon>
				<hotSpot x="64" y="128" xunits="pixels" yunits="insetPixels"/>
			</IconStyle>
			<LabelStyle>
			</LabelStyle>
			<LineStyle>
				<color>ff2dc0fb</color>
				<width>4.8</width>
			</LineStyle>
			<PolyStyle>
				<color>40ffffff</color>
			</PolyStyle>
			<BalloonStyle>
			</BalloonStyle>
		</Style>
	</gx:CascadingStyle>
	<gx:CascadingStyle kml:id="__managed_style_0B1EECBD9240C2F88906_normal">
		<Style>
			<IconStyle>
				<scale>1.5</scale>
				<Icon>
					<href>https://earth.google.com/earth/document/icon?color=388e3c&amp;id=2367&amp;scale=4</href>
				</Icon>
				<hotSpot x="64" y="128" xunits="pixels" yunits="insetPixels"/>
			</IconStyle>
			<LabelStyle>
			</LabelStyle>
			<LineStyle>
				<color>ff2dc0fb</color>
				<width>3.2</width>
			</LineStyle>
			<PolyStyle>
				<color>40ffffff</color>
			</PolyStyle>
			<BalloonStyle>
			</BalloonStyle>
		</Style>
	</gx:CascadingStyle>
	<gx:CascadingStyle kml:id="__managed_style_08F06804BC40C2F88904_normal">
		<Style>
			<IconStyle>
				<Icon>
					<href>https://earth.google.com/earth/document/icon?color=1976d2&amp;id=2006&amp;scale=4</href>
				</Icon>
				<hotSpot x="64" y="128" xunits="pixels" yunits="insetPixels"/>
			</IconStyle>
			<LabelStyle>
			</LabelStyle>
			<LineStyle>
				<color>ff2dc0fb</color>
				<width>3.2</width>
			</LineStyle>
			<PolyStyle>
				<color>40ffffff</color>
			</PolyStyle>
			<BalloonStyle>
				<gx:displayMode>card</gx:displayMode>
			</BalloonStyle>
		</Style>
	</gx:CascadingStyle>
	<gx:CascadingStyle kml:id="__managed_style_198FB6AF0E40C2F88901_highlight">
		<Style>
			<IconStyle>
				<scale>1.8</scale>
				<Icon>
					<href>https://earth.google.com/earth/document/icon?color=d32f2f&amp;id=2283&amp;scale=4</href>
				</Icon>
				<hotSpot x="64" y="128" xunits="pixels" yunits="insetPixels"/>
			</IconStyle>
			<LabelStyle>
			</LabelStyle>
			<LineStyle>
				<color>ff2dc0fb</color>
				<width>4.8</width>
			</LineStyle>
			<PolyStyle>
				<color>40ffffff</color>
			</PolyStyle>
			<BalloonStyle>
				<gx:displayMode>card</gx:displayMode>
			</BalloonStyle>
		</Style>
	</gx:CascadingStyle>
	<gx:CascadingStyle kml:id="__managed_style_0F2C48E65440C2F88903_normal">
		<Style>
			<IconStyle>
				<scale>1.5</scale>
				<Icon>
					<href>https://earth.google.com/earth/document/icon?color=303f9f&amp;id=2385&amp;scale=4</href>
				</Icon>
				<hotSpot x="64" y="128" xunits="pixels" yunits="insetPixels"/>
			</IconStyle>
			<LabelStyle>
			</LabelStyle>
			<LineStyle>
				<color>ff2dc0fb</color>
				<width>3.2</width>
			</LineStyle>
			<PolyStyle>
				<color>40ffffff</color>
			</PolyStyle>
			<BalloonStyle>
			</BalloonStyle>
		</Style>
	</gx:CascadingStyle>
	<StyleMap id="__managed_style_1F7D9990F440C2F88904">
		<Pair>
			<key>normal</key>
			<styleUrl>#__managed_style_1F7D9990F440C2F88904_normal</styleUrl>
		</Pair>
		<Pair>
			<key>highlight</key>
			<styleUrl>#__managed_style_1F7D9990F440C2F88904_highlight</styleUrl>
		</Pair>
	</StyleMap>
	<gx:CascadingStyle kml:id="__managed_style_08F06804BC40C2F88904_highlight">
		<Style>
			<IconStyle>
				<scale>1.2</scale>
				<Icon>
					<href>https://earth.google.com/earth/document/icon?color=1976d2&amp;id=2006&amp;scale=4</href>
				</Icon>
				<hotSpot x="64" y="128" xunits="pixels" yunits="insetPixels"/>
			</IconStyle>
			<LabelStyle>
			</LabelStyle>
			<LineStyle>
				<color>ff2dc0fb</color>
				<width>4.8</width>
			</LineStyle>
			<PolyStyle>
				<color>40ffffff</color>
			</PolyStyle>
			<BalloonStyle>
				<gx:displayMode>card</gx:displayMode>
			</BalloonStyle>
		</Style>
	</gx:CascadingStyle>
	<gx:CascadingStyle kml:id="__managed_style_1F7D9990F440C2F88904_highlight">
		<Style>
			<IconStyle>
				<scale>1.2</scale>
				<Icon>
					<href>https://earth.google.com/earth/document/icon?color=1976d2&amp;id=2000&amp;scale=4</href>
				</Icon>
				<hotSpot x="64" y="128" xunits="pixels" yunits="insetPixels"/>
			</IconStyle>
			<LabelStyle>
			</LabelStyle>
			<LineStyle>
				<color>ff2dc0fb</color>
				<width>4.8</width>
			</LineStyle>
			<PolyStyle>
				<color>40ffffff</color>
			</PolyStyle>
			<BalloonStyle>
			</BalloonStyle>
		</Style>
	</gx:CascadingStyle>
	<gx:CascadingStyle kml:id="__managed_style_1F7D9990F440C2F88904_normal">
		<Style>
			<IconStyle>
				<Icon>
					<href>https://earth.google.com/earth/document/icon?color=1976d2&amp;id=2000&amp;scale=4</href>
				</Icon>
				<hotSpot x="64" y="128" xunits="pixels" yunits="insetPixels"/>
			</IconStyle>
			<LabelStyle>
			</LabelStyle>
			<LineStyle>
				<color>ff2dc0fb</color>
				<width>3.2</width>
			</LineStyle>
			<PolyStyle>
				<color>40ffffff</color>
			</PolyStyle>
			<BalloonStyle>
			</BalloonStyle>
		</Style>
	</gx:CascadingStyle>
	<Placemark id="0F2D6EC25040C2C18C11">
		<name>Jalur tanpa judul</name>
		<LookAt>
			<longitude>112.3119361389225</longitude>
			<latitude>-8.208648630931352</latitude>
			<altitude>225.2671346336334</altitude>
			<heading>0</heading>
			<tilt>0</tilt>
			<gx:fovy>35</gx:fovy>
			<range>5368.565409157891</range>
			<altitudeMode>absolute</altitudeMode>
		</LookAt>
		<styleUrl>#__managed_style_1F7D9990F440C2F88904</styleUrl>
		<LineString>
			<coordinates>
				112.3188392501954,-8.211810803277451,0 112.3188394202536,-8.21193074377976,0 112.319013299051,-8.212194679899177,0 112.3191073860696,-8.212355689727453,0 112.3191265027148,-8.212394090770857,0 112.3191452457838,-8.212437566402098,0 112.3191892280639,-8.21251852856019,0 112.3192878884894,-8.212581992037947,0 112.3195976252718,-8.212581098964133,0 112.3196888174674,-8.212559601061065,0 112.3198108578758,-8.212537888755044,0 112.320023550658,-8.212421757718335,0 112.3202410308084,-8.212340019871684,0 112.3205824842377,-8.212232456821006,0 112.3212481438906,-8.212076826855665,0 112.3214192678133,-8.212199791855674,0 112.3215549043539,-8.21240819354669,0 112.3217444543518,-8.212708830145978,0 112.3218286785395,-8.212847582416828,0 112.3218588530389,-8.212902231858974,0 112.3219490943279,-8.21297038134338,0 112.3220220686974,-8.21327838476952,0 112.3220792635745,-8.213246006836068,0 112.3224551359052,-8.2137838382844,0 112.3225071085913,-8.213849735362867,0 112.322551351099,-8.213909306918747,0 112.3226837394245,-8.213928226268781,0 112.3228054496972,-8.213951622450057,0 112.323038246759,-8.214007908826895,0 112.3231590944853,-8.214171858917194,0 112.3231395776959,-8.214356024018715,0 112.3232525643705,-8.214691503885673,0 112.3233423163765,-8.21493061086268,0 112.3234152677645,-8.215096394629535,0 112.3235480090602,-8.215368159740921,0 112.3236076518705,-8.215520907119641,0 112.3236461209505,-8.215630632451772,0 112.3236603191885,-8.215662439542259,0 112.3236345729075,-8.21586986526173,0 112.3235882863733,-8.216124387357047,0 112.3237746594754,-8.216571910493176,0 112.323823514353,-8.216888994717225,0 112.3237863826551,-8.217069522412066,0 112.3236312853375,-8.219061394907406,0 112.3233033425761,-8.219404591523544,0 112.3227884813057,-8.219127721239772,0 112.3228481823355,-8.218725253364406,0 112.3226820150187,-8.21861997217413,0 112.3225256661873,-8.218527924501151,0 112.3218928527787,-8.218578053270729,0 112.3215934079955,-8.218839059215727,0 112.3226414682058,-8.219748144722029,0 112.3220107091102,-8.22041044539429,0 112.3223291600113,-8.221016713248371,0 112.3226827956262,-8.221340607010672,0 112.3229193237807,-8.221292715079585,0 112.3234188089962,-8.220829894663126,0 112.3234874877803,-8.221783015050329,0 112.3239986407121,-8.222679578796233,0 112.3235233964159,-8.223106603113356,0 112.3234340251236,-8.223913148342536,0 112.3232441372948,-8.224239306468728,0 112.3228609404739,-8.224179546454703,0 112.3223690801497,-8.223921341180098,0 112.3218623335346,-8.224585741165368,0 112.3220685123833,-8.225009621339264,0 112.3220193226683,-8.22524752888328,0 112.3205805679218,-8.225626888804765,0 112.3203098343058,-8.22620652412456,0 112.3195643502715,-8.227602811168275,0 112.3195349951977,-8.228432868691968,0 112.3189383784512,-8.229093489090328,0 112.3183060561663,-8.229049251171052,0 112.3178716118357,-8.228170743331814,0 112.3167913816002,-8.227873134200065,0 112.3154810658199,-8.228736916971721,0 112.3146379904768,-8.22820769989157,0 112.3136007858854,-8.229087040185066,0 112.3129667199692,-8.229040355819363,0 112.3126756085208,-8.229725541497372,0 112.312346750445,-8.231419172458747,0 112.3118136704178,-8.231598654379811,0 112.3104192476933,-8.231781227622278,0 112.3102823632865,-8.232525979252308,0 112.3097831965251,-8.232874048316916,0 112.3085634067666,-8.232984603789031,0 112.3079855173212,-8.232923746974244,0 112.3077906508857,-8.232877260855295,0 112.3076345327464,-8.232946127688612,0 112.3068820109562,-8.233597238310498,0 112.3063598627928,-8.233743652788283,0 112.3062192757019,-8.234047763588597,0 112.3057622517521,-8.234419980620773,0 112.3053233556259,-8.23440182332576,0 112.3052840942106,-8.232997407281257,0 112.3041877859836,-8.233011776222835,0 112.3043768904927,-8.231199671033711,0 112.3038100491401,-8.231077932910219,0 112.3037786768514,-8.229972602821675,0 112.3032776153928,-8.230089700653648,0 112.3032163364105,-8.227010316973491,0 112.3035550309418,-8.226363386948789,0 112.3036037688734,-8.225602529637902,0 112.3036909250686,-8.225540534821093,0 112.3040412692563,-8.224736281577082,0 112.3044992857039,-8.223706844083615,0 112.3049235842797,-8.22291379606429,0 112.3055363420076,-8.22162432178088,0 112.3058072116586,-8.220659393427683,0 112.305581489338,-8.217632173803038,0 112.3055770418728,-8.217573691188861,0 112.3055720332756,-8.21752545896101,0 112.3055583624657,-8.217411595078424,0 112.3055400283514,-8.217207298278211,0 112.3054893425648,-8.216788619960285,0 112.3054891519522,-8.216753572912257,0 112.3054894771262,-8.21672489985265,0 112.3054901274741,-8.216667553733437,0 112.3054914281694,-8.216552861495005,0 112.305494909035,-8.216506136887515,0 112.3055009954159,-8.216459091100564,0 112.305510475534,-8.216365302722243,0 112.3055202475216,-8.216319277157401,0 112.3055332051791,-8.216267045875,0 112.3055555461591,-8.216167233914964,0 112.3056002280853,-8.215967609991189,0 112.3056399850167,-8.215888205177587,0 112.3056830122315,-8.215804184098047,0 112.3057648704902,-8.215639432386899,0 112.3059297299589,-8.215302049706352,0 112.3059492241735,-8.215192831983293,0 112.305964906475,-8.215080915112461,0 112.3059919161016,-8.214992905589165,0 112.3060169389059,-8.214901573917471,0 112.3060296747619,-8.214798008067026,0 112.306040250749,-8.214694331515847,0 112.3060427832233,-8.214450435216031,0 112.3060395753568,-8.214209316271225,0 112.3060331596355,-8.213727078381535,0 112.3060253907715,-8.212765287618236,0 112.30616208229,-8.210868466964767,0 112.3061701831444,-8.210871363641571,0 112.3063909936162,-8.210756738269453,0 112.3066862287603,-8.210698264746233,0 112.3070525832338,-8.210582823841396,0 112.3071089832997,-8.210562319510823,0 112.3071915074407,-8.210474399569252,0 112.3073834216888,-8.209250246928104,0 112.3079144090298,-8.208725374032914,0 112.3080359105304,-8.208273045844045,0 112.3086702960806,-8.20841818409443,0 112.3090786817818,-8.208409382003573,0 112.3096947610538,-8.208121639291296,0 112.3099852115286,-8.208127423377617,0 112.310803542672,-8.208240167549498,0 112.3112273453116,-8.20817866800247,0 112.3114295556281,-8.208288067038442,0 112.3116307621197,-8.208410340963967,0 112.3117553013734,-8.208558291575692,0 112.3118451364847,-8.208659338486168,0 112.3119080880796,-8.208736992437384,0 112.3119780570323,-8.208807162199701,0 112.3121116324151,-8.208929193416655,0 112.3122596579704,-8.209000102920886,0 112.3124591642966,-8.208999914190052,0 112.3127040469659,-8.208963072305346,0 112.3131019274523,-8.208898785693835,0 112.3138485464635,-8.208742509000061,0 112.3139811631966,-8.208710351796775,0 112.3141406162824,-8.208710473768443,0 112.3143407567221,-8.20878999439878,0 112.3146439251093,-8.20907562870882,0 112.314788553264,-8.209238811430497,0 112.3149485586768,-8.209310135810599,0 112.3151597818239,-8.209308267309455,0 112.3152537086101,-8.209360764756756,0 112.315289106685,-8.209488216357428,0 112.3152802471797,-8.20960197168275,0 112.3151281879719,-8.209760172832761,0 112.3150599513727,-8.209819179382787,0 112.3150602780646,-8.210129395105074,0 112.3151002167618,-8.210288789416696,0 112.3151596937265,-8.210350849559131,0 112.315630831994,-8.210389063034045,0 112.3157805785626,-8.210479018664165,0 112.3161026040536,-8.210823407607347,0 112.3167760462922,-8.2110661351534,0 112.3169406466505,-8.211144915864237,0 112.3170295020314,-8.211193051211668,0 112.3173114275272,-8.211621902096983,0 112.3174705829106,-8.211959428703432,0 112.3175483918582,-8.21204810861957,0 112.3177751981746,-8.212010106642445,0 112.3180398865864,-8.211878793146679,0 112.318395902598,-8.211630948307363,0 112.3185095805125,-8.211568407354781,0 112.3187098845985,-8.211460034848216,0 112.3189207093249,-8.211390845878578,0 112.3189888705245,-8.211410220760404,0 112.3190403059013,-8.211490919913182,0 112.318959851142,-8.211660257483613,0 112.318839048817,-8.211810282026876,0 
			</coordinates>
		</LineString>
	</Placemark>
	<Placemark id="0CF862D53140C2B55597">
		<gx:mid>/g/12hhj286_</gx:mid>
		<gx:fid>0x2e78be6119e8393d:0x220747d429e455a4</gx:fid>
		<LookAt>
			<longitude>112.31360495</longitude>
			<latitude>-8.221286049999998</latitude>
			<altitude>0</altitude>
			<heading>0</heading>
			<tilt>0</tilt>
			<gx:fovy>35</gx:fovy>
			<range>5666.446157639778</range>
			<altitudeMode>relativeToGround</altitudeMode>
		</LookAt>
		<styleUrl>#__managed_style_08F06804BC40C2F88904</styleUrl>
		<Point>
			<altitudeMode>relativeToGround</altitudeMode>
			<coordinates>112.3125228134271,-8.222392293308904,0</coordinates>
		</Point>
	</Placemark>
	<Placemark id="025A6A1C0E40C29659F0">
		<name>Sumber Preih</name>
		<LookAt>
			<longitude>112.3083358251703</longitude>
			<latitude>-8.223139967005732</latitude>
			<altitude>220.6188680397487</altitude>
			<heading>-0.5090138613970062</heading>
			<tilt>0.2955608656214372</tilt>
			<gx:fovy>35</gx:fovy>
			<range>237.1189169797071</range>
			<altitudeMode>absolute</altitudeMode>
		</LookAt>
		<styleUrl>#__managed_style_27BC02E23840C2F88904</styleUrl>
		<Point>
			<coordinates>112.308628189931,-8.223164394659523,219.2696676421541</coordinates>
		</Point>
	</Placemark>
	<Placemark id="0B580E5A4540C297FD5F">
		<name>Petilasan Desa</name>
		<LookAt>
			<longitude>112.3088181362588</longitude>
			<latitude>-8.228281729197111</latitude>
			<altitude>220.1191102855491</altitude>
			<heading>-0.5090138205131132</heading>
			<tilt>0.2955870891189932</tilt>
			<gx:fovy>35</gx:fovy>
			<range>803.1932833495375</range>
			<altitudeMode>absolute</altitudeMode>
		</LookAt>
		<styleUrl>#__managed_style_0F2C48E65440C2F88903</styleUrl>
		<Point>
			<coordinates>112.3091521923055,-8.228469508032632,221.6899771395255</coordinates>
		</Point>
	</Placemark>
	<Placemark id="06F796E3F040C29A513E">
		<name>Centra Produksi Kerajinan dan Kesenian </name>
		<LookAt>
			<longitude>112.313771563261</longitude>
			<latitude>-8.226964981211854</latitude>
			<altitude>214.1392111801819</altitude>
			<heading>-0.5090138690609164</heading>
			<tilt>0.2955598813872352</tilt>
			<gx:fovy>35</gx:fovy>
			<range>217.3910946862453</range>
			<altitudeMode>absolute</altitudeMode>
		</LookAt>
		<styleUrl>#__managed_style_3D77A8758540C2F88904</styleUrl>
		<Point>
			<coordinates>112.3137733064252,-8.227159171258887,213.3634659494086</coordinates>
		</Point>
	</Placemark>
	<Placemark id="088E45E5D040C29DBEC7">
		<name>Sumber </name>
		<LookAt>
			<longitude>112.3148414953973</longitude>
			<latitude>-8.210652276857603</latitude>
			<altitude>235.0380055732124</altitude>
			<heading>-0.5090138500889191</heading>
			<tilt>0.2955676144346752</tilt>
			<gx:fovy>35</gx:fovy>
			<range>384.5562388494728</range>
			<altitudeMode>absolute</altitudeMode>
		</LookAt>
		<styleUrl>#__managed_style_0B1EECBD9240C2F88906</styleUrl>
		<Point>
			<coordinates>112.3154297870466,-8.210783820164409,234.8885346877851</coordinates>
		</Point>
	</Placemark>
	<Placemark id="0D4CC3A96840C29FCDBF">
		<name>Petilasan Mbah Kiai Abdul Salam</name>
		<LookAt>
			<longitude>112.3225890352608</longitude>
			<latitude>-8.214362350629266</latitude>
			<altitude>199.5402133777628</altitude>
			<heading>-4.269056818729712</heading>
			<tilt>11.57911506771797</tilt>
			<gx:fovy>35</gx:fovy>
			<range>335.9615045917963</range>
			<altitudeMode>absolute</altitudeMode>
		</LookAt>
		<styleUrl>#__managed_style_1014AE72E140C2F88903</styleUrl>
		<Point>
			<coordinates>112.322794574785,-8.214641617257991,199.9467920615089</coordinates>
		</Point>
	</Placemark>
	<Placemark id="0151DFD15B40C2A399EE">
		<name>Punden Jomblang</name>
		<LookAt>
			<longitude>112.3189681815593</longitude>
			<latitude>-8.212516561921403</latitude>
			<altitude>209.1357524793746</altitude>
			<heading>-4.26905530998198</heading>
			<tilt>11.57925560124987</tilt>
			<gx:fovy>35</gx:fovy>
			<range>413.821527391483</range>
			<altitudeMode>absolute</altitudeMode>
		</LookAt>
		<styleUrl>#__managed_style_1014AE72E140C2F88903</styleUrl>
		<Point>
			<coordinates>112.3195412735412,-8.212625619408799,207.5529176023368</coordinates>
		</Point>
	</Placemark>
	<Placemark id="041D71ACB740C2A5D878">
		<gx:mid>/g/11v0brbdxk</gx:mid>
		<gx:fid>0x2e78be8a7a4eaaab:0x18ac8d714fe76ee1</gx:fid>
		<LookAt>
			<longitude>112.3102515</longitude>
			<latitude>-8.2253706</latitude>
			<altitude>0</altitude>
			<heading>0</heading>
			<tilt>0</tilt>
			<gx:fovy>35</gx:fovy>
			<range>1044.38408687605</range>
			<altitudeMode>relativeToGround</altitudeMode>
		</LookAt>
		<styleUrl>#__managed_style_089B0F7CB740C2F88900</styleUrl>
		<Point>
			<altitudeMode>relativeToGround</altitudeMode>
			<coordinates>112.3102515,-8.2253706,0</coordinates>
		</Point>
	</Placemark>
	<Placemark id="027B68932440C2A66BE0">
		<gx:mid>/g/11f6g349vt</gx:mid>
		<gx:fid>0x2e78bf68ac25848d:0xc797d94299a6a139</gx:fid>
		<LookAt>
			<longitude>112.3147829</longitude>
			<latitude>-8.2246761</latitude>
			<altitude>0</altitude>
			<heading>0</heading>
			<tilt>0</tilt>
			<gx:fovy>35</gx:fovy>
			<range>1044.386134139126</range>
			<altitudeMode>relativeToGround</altitudeMode>
		</LookAt>
		<styleUrl>#__managed_style_102C1C491F40C2F88900</styleUrl>
		<Point>
			<altitudeMode>relativeToGround</altitudeMode>
			<coordinates>112.3147829,-8.2246761,0</coordinates>
		</Point>
	</Placemark>
	<Placemark id="073E7D23A440C2A7388F">
		<gx:mid>/g/11ks473rpy</gx:mid>
		<gx:fid>0x2e78bfb7c1ff3ac3:0xa5d9c02c7a63cf5d</gx:fid>
		<LookAt>
			<longitude>112.3132861</longitude>
			<latitude>-8.227635599999997</latitude>
			<altitude>0</altitude>
			<heading>0</heading>
			<tilt>0</tilt>
			<gx:fovy>35</gx:fovy>
			<range>1044.377408869289</range>
			<altitudeMode>relativeToGround</altitudeMode>
		</LookAt>
		<styleUrl>#__managed_style_0E8FC4AB6E40C2F88901</styleUrl>
		<Point>
			<altitudeMode>relativeToGround</altitudeMode>
			<coordinates>112.3133037,-8.227646699999999,0</coordinates>
		</Point>
	</Placemark>
	<Placemark id="06238D540340C2A80246">
		<gx:mid>/g/1pzs5zphs</gx:mid>
		<gx:fid>0x2e78be61c219b345:0xace3128587f02e0e</gx:fid>
		<LookAt>
			<longitude>112.3133944</longitude>
			<latitude>-8.2278792</latitude>
			<altitude>0</altitude>
			<heading>0</heading>
			<tilt>0</tilt>
			<gx:fovy>35</gx:fovy>
			<range>1044.376690543603</range>
			<altitudeMode>relativeToGround</altitudeMode>
		</LookAt>
		<styleUrl>#__managed_style_198FB6AF0E40C2F88901</styleUrl>
		<Point>
			<altitudeMode>relativeToGround</altitudeMode>
			<coordinates>112.3134078,-8.2278447,0</coordinates>
		</Point>
	</Placemark>
	<Placemark id="000B7D200240C2A9EB43">
		<name>Pos Kesehatan Desa</name>
		<LookAt>
			<longitude>112.310433666686</longitude>
			<latitude>-8.225366094054293</latitude>
			<altitude>231.7315451582817</altitude>
			<heading>-4.269061802667768</heading>
			<tilt>11.57865126468901</tilt>
			<gx:fovy>35</gx:fovy>
			<range>79.00766742638552</range>
			<altitudeMode>absolute</altitudeMode>
		</LookAt>
		<styleUrl>#__managed_style_225DDC512740C2F88901</styleUrl>
		<Point>
			<coordinates>112.310417526246,-8.225388043212224,231.8160299637777</coordinates>
		</Point>
	</Placemark>
</Document>
</kml>
